{"fetched_at":"2026-07-13T07:47:52.862Z","source":"https://celestrak.org/NORAD/elements/gp.php?GROUP=kuiper&FORMAT=JSON","constellation":"kuiper","records":[{"OBJECT_NAME":"KUIPER-00413","OBJECT_ID":"2026-098K","EPOCH":"2026-07-12T20:00:01.999008","CLASSIFICATION_TYPE":"U","MEAN_MOTION":15.06214192,"ECCENTRICITY":0.0020584,"INCLINATION":51.8863,"RA_OF_ASC_NODE":308.6307,"ARG_OF_PERICENTER":254.8292,"MEAN_ANOMALY":145.2858,"EPHEMERIS_TYPE":0,"NORAD_CAT_ID":68928,"ELEMENT_SET_NO":999,"REV_AT_EPOCH":473,"BSTAR":-0.0021983,"MEAN_MOTION_DOT":-0.00032903,"MEAN_MOTION_DDOT":0},{"OBJECT_NAME":"KUIPER-00414","OBJECT_ID":"2026-098L","EPOCH":"2026-07-12T17:12:30.652416","CLASSIFICATION_TYPE":"U","MEAN_MOTION":14.79930066,"ECCENTRICITY":0.0001101,"INCLINATION":51.898,"RA_OF_ASC_NODE":317.8653,"ARG_OF_PERICENTER":257.2309,"MEAN_ANOMALY":102.853,"EPHEMERIS_TYPE":0,"NORAD_CAT_ID":68929,"ELEMENT_SET_NO":999,"REV_AT_EPOCH":1108,"BSTAR":0.00027887,"MEAN_MOTION_DOT":0.00001905,"MEAN_MOTION_DDOT":0},{"OBJECT_NAME":"KUIPER-00415","OBJECT_ID":"2026-098M","EPOCH":"2026-07-12T16:27:32.172192","CLASSIFICATION_TYPE":"U","MEAN_MOTION":15.30276094,"ECCENTRICITY":0.000832,"INCLINATION":51.8792,"RA_OF_ASC_NODE":306.3795,"ARG_OF_PERICENTER":241.9994,"MEAN_ANOMALY":118.0148,"EPHEMERIS_TYPE":0,"NORAD_CAT_ID":68930,"ELEMENT_SET_NO":999,"REV_AT_EPOCH":1124,"BSTAR":0.0005863,"MEAN_MOTION_DOT":0.00017114,"MEAN_MOTION_DDOT":0},{"OBJECT_NAME":"KUIPER-00416","OBJECT_ID":"2026-098N","EPOCH":"2026-07-12T15:53:14.778240","CLASSIFICATION_TYPE":"U","MEAN_MOTION":15.37596743,"ECCENTRICITY":0.0001577,"INCLINATION":51.8751,"RA_OF_ASC_NODE":304.0082,"ARG_OF_PERICENTER":321.9229,"MEAN_ANOMALY":38.1646,"EPHEMERIS_TYPE":0,"NORAD_CAT_ID":68931,"ELEMENT_SET_NO":999,"REV_AT_EPOCH":1127,"BSTAR":0.0002996,"MEAN_MOTION_DOT":0.00010852,"MEAN_MOTION_DDOT":0},{"OBJECT_NAME":"KUIPER-00420","OBJECT_ID":"2026-098P","EPOCH":"2026-07-12T17:02:33.180000","CLASSIFICATION_TYPE":"U","MEAN_MOTION":15.36675355,"ECCENTRICITY":0.000365,"INCLINATION":51.8787,"RA_OF_ASC_NODE":304.3344,"ARG_OF_PERICENTER":306.3949,"MEAN_ANOMALY":53.67,"EPHEMERIS_TYPE":0,"NORAD_CAT_ID":68932,"ELEMENT_SET_NO":999,"REV_AT_EPOCH":1127,"BSTAR":0.0004662,"MEAN_MOTION_DOT":0.0001661,"MEAN_MOTION_DDOT":0},{"OBJECT_NAME":"KUIPER-00421","OBJECT_ID":"2026-098Q","EPOCH":"2026-07-12T17:22:43.947264","CLASSIFICATION_TYPE":"U","MEAN_MOTION":15.30080393,"ECCENTRICITY":0.0007564,"INCLINATION":51.8789,"RA_OF_ASC_NODE":305.8848,"ARG_OF_PERICENTER":221.7449,"MEAN_ANOMALY":138.2958,"EPHEMERIS_TYPE":0,"NORAD_CAT_ID":68933,"ELEMENT_SET_NO":999,"REV_AT_EPOCH":1125,"BSTAR":0.00039143,"MEAN_MOTION_DOT":0.00011224,"MEAN_MOTION_DDOT":0},{"OBJECT_NAME":"KUIPER-00425","OBJECT_ID":"2026-098R","EPOCH":"2026-07-12T20:00:01.999008","CLASSIFICATION_TYPE":"U","MEAN_MOTION":15.16423137,"ECCENTRICITY":0.0014008,"INCLINATION":51.8817,"RA_OF_ASC_NODE":307.3661,"ARG_OF_PERICENTER":246.3756,"MEAN_ANOMALY":72.318,"EPHEMERIS_TYPE":0,"NORAD_CAT_ID":68934,"ELEMENT_SET_NO":999,"REV_AT_EPOCH":591,"BSTAR":0.00089758,"MEAN_MOTION_DOT":0.0001744,"MEAN_MOTION_DDOT":0},{"OBJECT_NAME":"KUIPER-00430","OBJECT_ID":"2026-098S","EPOCH":"2026-07-12T20:00:01.999008","CLASSIFICATION_TYPE":"U","MEAN_MOTION":15.03789079,"ECCENTRICITY":0.0016566,"INCLINATION":51.8888,"RA_OF_ASC_NODE":308.2555,"ARG_OF_PERICENTER":251.1911,"MEAN_ANOMALY":50.1481,"EPHEMERIS_TYPE":0,"NORAD_CAT_ID":68935,"ELEMENT_SET_NO":999,"REV_AT_EPOCH":575,"BSTAR":-0.0024421,"MEAN_MOTION_DOT":-0.00034161,"MEAN_MOTION_DDOT":0},{"OBJECT_NAME":"KUIPER-00431","OBJECT_ID":"2026-098T","EPOCH":"2026-07-12T20:00:01.999008","CLASSIFICATION_TYPE":"U","MEAN_MOTION":14.89084382,"ECCENTRICITY":0.0011703,"INCLINATION":51.8955,"RA_OF_ASC_NODE":309.9708,"ARG_OF_PERICENTER":231.9451,"MEAN_ANOMALY":233.8739,"EPHEMERIS_TYPE":0,"NORAD_CAT_ID":68936,"ELEMENT_SET_NO":999,"REV_AT_EPOCH":400,"BSTAR":0.00021411,"MEAN_MOTION_DOT":0.00001799,"MEAN_MOTION_DDOT":0},{"OBJECT_NAME":"KUIPER-00432","OBJECT_ID":"2026-098U","EPOCH":"2026-07-12T18:00:40.759200","CLASSIFICATION_TYPE":"U","MEAN_MOTION":15.27321294,"ECCENTRICITY":0.0011001,"INCLINATION":51.8739,"RA_OF_ASC_NODE":306.7645,"ARG_OF_PERICENTER":240.7972,"MEAN_ANOMALY":119.191,"EPHEMERIS_TYPE":0,"NORAD_CAT_ID":68937,"ELEMENT_SET_NO":999,"REV_AT_EPOCH":1124,"BSTAR":0.00038644,"MEAN_MOTION_DOT":0.00010165,"MEAN_MOTION_DDOT":0},{"OBJECT_NAME":"KUIPER-00434","OBJECT_ID":"2026-098V","EPOCH":"2026-07-12T20:00:01.999008","CLASSIFICATION_TYPE":"U","MEAN_MOTION":15.08112467,"ECCENTRICITY":0.0002409,"INCLINATION":51.8858,"RA_OF_ASC_NODE":306.1641,"ARG_OF_PERICENTER":213.5642,"MEAN_ANOMALY":30.1358,"EPHEMERIS_TYPE":0,"NORAD_CAT_ID":68938,"ELEMENT_SET_NO":999,"REV_AT_EPOCH":590,"BSTAR":-0.12115,"MEAN_MOTION_DOT":-0.01728215,"MEAN_MOTION_DDOT":0},{"OBJECT_NAME":"KUIPER-00436","OBJECT_ID":"2026-098W","EPOCH":"2026-07-12T20:00:01.999008","CLASSIFICATION_TYPE":"U","MEAN_MOTION":15.11008972,"ECCENTRICITY":0.0007886,"INCLINATION":51.8829,"RA_OF_ASC_NODE":306.5207,"ARG_OF_PERICENTER":242.5887,"MEAN_ANOMALY":170.7103,"EPHEMERIS_TYPE":0,"NORAD_CAT_ID":68939,"ELEMENT_SET_NO":999,"REV_AT_EPOCH":469,"BSTAR":-0.091389,"MEAN_MOTION_DOT":-0.01418945,"MEAN_MOTION_DDOT":0},{"OBJECT_NAME":"KUIPER-00438","OBJECT_ID":"2026-098X","EPOCH":"2026-07-12T20:00:01.999008","CLASSIFICATION_TYPE":"U","MEAN_MOTION":15.18047941,"ECCENTRICITY":0.0005686,"INCLINATION":51.8849,"RA_OF_ASC_NODE":305.2996,"ARG_OF_PERICENTER":284.8091,"MEAN_ANOMALY":312.3119,"EPHEMERIS_TYPE":0,"NORAD_CAT_ID":68940,"ELEMENT_SET_NO":999,"REV_AT_EPOCH":559,"BSTAR":-0.059116,"MEAN_MOTION_DOT":-0.01126906,"MEAN_MOTION_DDOT":0},{"OBJECT_NAME":"KUIPER-00439","OBJECT_ID":"2026-098Y","EPOCH":"2026-07-12T20:00:01.999008","CLASSIFICATION_TYPE":"U","MEAN_MOTION":15.21214841,"ECCENTRICITY":0.0004923,"INCLINATION":51.8818,"RA_OF_ASC_NODE":305.4362,"ARG_OF_PERICENTER":266.0764,"MEAN_ANOMALY":295.1842,"EPHEMERIS_TYPE":0,"NORAD_CAT_ID":68941,"ELEMENT_SET_NO":999,"REV_AT_EPOCH":386,"BSTAR":-0.053358,"MEAN_MOTION_DOT":-0.0111646,"MEAN_MOTION_DDOT":0},{"OBJECT_NAME":"KUIPER-00440","OBJECT_ID":"2026-098Z","EPOCH":"2026-07-12T16:29:41.175168","CLASSIFICATION_TYPE":"U","MEAN_MOTION":15.31469813,"ECCENTRICITY":0.0002901,"INCLINATION":51.8794,"RA_OF_ASC_NODE":305.6505,"ARG_OF_PERICENTER":297.9203,"MEAN_ANOMALY":62.1487,"EPHEMERIS_TYPE":0,"NORAD_CAT_ID":68942,"ELEMENT_SET_NO":999,"REV_AT_EPOCH":1125,"BSTAR":0.00035023,"MEAN_MOTION_DOT":0.0001045,"MEAN_MOTION_DDOT":0},{"OBJECT_NAME":"KUIPER-00442","OBJECT_ID":"2026-098AA","EPOCH":"2026-07-12T17:01:12.758016","CLASSIFICATION_TYPE":"U","MEAN_MOTION":15.34496195,"ECCENTRICITY":0.0003643,"INCLINATION":51.8798,"RA_OF_ASC_NODE":305.0684,"ARG_OF_PERICENTER":252.3388,"MEAN_ANOMALY":107.72,"EPHEMERIS_TYPE":0,"NORAD_CAT_ID":68943,"ELEMENT_SET_NO":999,"REV_AT_EPOCH":1126,"BSTAR":0.00045055,"MEAN_MOTION_DOT":0.00014937,"MEAN_MOTION_DDOT":0},{"OBJECT_NAME":"KUIPER-00446","OBJECT_ID":"2026-098AB","EPOCH":"2026-07-12T20:00:01.999008","CLASSIFICATION_TYPE":"U","MEAN_MOTION":15.303024,"ECCENTRICITY":0.0003615,"INCLINATION":51.8768,"RA_OF_ASC_NODE":304.6524,"ARG_OF_PERICENTER":237.1517,"MEAN_ANOMALY":341.7261,"EPHEMERIS_TYPE":0,"NORAD_CAT_ID":68944,"ELEMENT_SET_NO":999,"REV_AT_EPOCH":504,"BSTAR":-0.084046,"MEAN_MOTION_DOT":-0.02235119,"MEAN_MOTION_DDOT":0},{"OBJECT_NAME":"KUIPER-00451","OBJECT_ID":"2026-098AC","EPOCH":"2026-07-12T20:00:01.999008","CLASSIFICATION_TYPE":"U","MEAN_MOTION":14.90183076,"ECCENTRICITY":0.0008753,"INCLINATION":51.8971,"RA_OF_ASC_NODE":309.8057,"ARG_OF_PERICENTER":239.2648,"MEAN_ANOMALY":241.743,"EPHEMERIS_TYPE":0,"NORAD_CAT_ID":68945,"ELEMENT_SET_NO":999,"REV_AT_EPOCH":576,"BSTAR":-0.000048578,"MEAN_MOTION_DOT":-0.0000072,"MEAN_MOTION_DDOT":0},{"OBJECT_NAME":"KUIPER-00452","OBJECT_ID":"2026-098AD","EPOCH":"2026-07-12T17:04:00.804288","CLASSIFICATION_TYPE":"U","MEAN_MOTION":15.36106127,"ECCENTRICITY":0.0002613,"INCLINATION":51.8761,"RA_OF_ASC_NODE":304.3249,"ARG_OF_PERICENTER":271.1298,"MEAN_ANOMALY":88.9388,"EPHEMERIS_TYPE":0,"NORAD_CAT_ID":68946,"ELEMENT_SET_NO":999,"REV_AT_EPOCH":1127,"BSTAR":0.00050776,"MEAN_MOTION_DOT":0.00017793,"MEAN_MOTION_DDOT":0},{"OBJECT_NAME":"KUIPER-00453","OBJECT_ID":"2026-098AE","EPOCH":"2026-07-12T12:59:00.968352","CLASSIFICATION_TYPE":"U","MEAN_MOTION":15.37469462,"ECCENTRICITY":0.00032683,"INCLINATION":51.8754,"RA_OF_ASC_NODE":304.6951,"ARG_OF_PERICENTER":316.6094,"MEAN_ANOMALY":43.4635,"EPHEMERIS_TYPE":0,"NORAD_CAT_ID":68947,"ELEMENT_SET_NO":999,"REV_AT_EPOCH":1125,"BSTAR":0.00032490594,"MEAN_MOTION_DOT":0.00011754,"MEAN_MOTION_DDOT":0},{"OBJECT_NAME":"KUIPER-00454","OBJECT_ID":"2026-098AF","EPOCH":"2026-07-12T20:00:01.999008","CLASSIFICATION_TYPE":"U","MEAN_MOTION":14.82844685,"ECCENTRICITY":0.0010343,"INCLINATION":51.899,"RA_OF_ASC_NODE":310.8846,"ARG_OF_PERICENTER":235.806,"MEAN_ANOMALY":159.0896,"EPHEMERIS_TYPE":0,"NORAD_CAT_ID":68948,"ELEMENT_SET_NO":999,"REV_AT_EPOCH":560,"BSTAR":-0.0021456,"MEAN_MOTION_DOT":-0.00017739,"MEAN_MOTION_DDOT":0},{"OBJECT_NAME":"KUIPER-00455","OBJECT_ID":"2026-098AG","EPOCH":"2026-07-12T20:00:01.999008","CLASSIFICATION_TYPE":"U","MEAN_MOTION":14.90981254,"ECCENTRICITY":0.0015992,"INCLINATION":51.8954,"RA_OF_ASC_NODE":310.0232,"ARG_OF_PERICENTER":230.7596,"MEAN_ANOMALY":282.6851,"EPHEMERIS_TYPE":0,"NORAD_CAT_ID":68949,"ELEMENT_SET_NO":999,"REV_AT_EPOCH":503,"BSTAR":0.000026375,"MEAN_MOTION_DOT":1.5e-7,"MEAN_MOTION_DDOT":0},{"OBJECT_NAME":"KUIPER-00458","OBJECT_ID":"2026-098AH","EPOCH":"2026-07-12T16:45:29.427264","CLASSIFICATION_TYPE":"U","MEAN_MOTION":15.36785507,"ECCENTRICITY":0.0003173,"INCLINATION":51.878,"RA_OF_ASC_NODE":304.2566,"ARG_OF_PERICENTER":295.761,"MEAN_ANOMALY":64.3048,"EPHEMERIS_TYPE":0,"NORAD_CAT_ID":68950,"ELEMENT_SET_NO":999,"REV_AT_EPOCH":1127,"BSTAR":0.00046204,"MEAN_MOTION_DOT":0.00016517,"MEAN_MOTION_DDOT":0}]}
